NORAD_CAT_ID,OBJECT_NAME,OBJECT_TYPE,EPOCH,MEAN_MOTION,ECCENTRICITY,INCLINATION,RA_OF_ASC_NODE,ARG_OF_PERICENTER,MEAN_ANOMALY,BSTAR,MEAN_MOTION_DOT,MEAN_MOTION_DDOT,TLE_LINE0,TLE_LINE1,TLE_LINE2,SEMIMAJOR_AXIS,PERIOD,APOGEE,PERIGEE,DECAYED
53182.0,STARLINK-4278,PAYLOAD,2023-10-22 14:01:17,15.08821047,0.0001087,53.217,80.6746,77.7069,282.4045,-0.0003682,-6.14e-05,0.0,0 STARLINK-4278,1 53182U 22083BC  23295.58422673 -.00006140  00000-0 -36820-3 0  9997,2 53182  53.2170  80.6746 0001087  77.7069 282.4045 15.08821047 70493,6917.938,95.439,540.555,539.051,0.0
53182.0,STARLINK-4278,PAYLOAD,2023-10-22 17:12:03,15.08822807,0.0001334,53.216,80.08,79.5196,280.5947,-0.00013638,-2.457e-05,0.0,0 STARLINK-4278,1 53182U 22083BC  23295.71670766 -.00002457  00000-0 -13638-3 0  9999,2 53182  53.2160  80.0800 0001334  79.5196 280.5947 15.08822807 71152,6917.933,95.439,540.721,538.875,0.0
53182.0,STARLINK-4278,PAYLOAD,2023-10-23 02:44:22,15.08833093,0.0001335,53.2159,78.2957,77.2696,282.8445,0.00077639,0.00012088,0.0,0 STARLINK-4278,1 53182U 22083BC  23296.11415162  .00012088  00000-0  77639-3 0  9991,2 53182  53.2159  78.2957 0001335  77.2696 282.8445 15.08833093 71217,6917.902,95.438,540.69,538.843,0.0
53182.0,STARLINK-4278,PAYLOAD,2023-10-24 08:56:42,15.08853832,0.0001367,53.2155,72.6459,73.8744,286.2398,0.00068559,0.00010644,0.0,0 STARLINK-4278,1 53182U 22083BC  23297.37271060  .00010644  00000-0  68559-3 0  9994,2 53182  53.2155  72.6459 0001367  73.8744 286.2398 15.08853832 71408,6917.838,95.437,540.649,538.757,0.0
53182.0,STARLINK-4278,PAYLOAD,2023-10-24 15:18:14,15.08855283,0.0001396,53.216,71.4554,72.7359,287.3786,0.00061042,9.444e-05,0.0,0 STARLINK-4278,1 53182U 22083BC  23297.63766917  .00009444  00000-0  61042-3 0  9999,2 53182  53.2160  71.4554 0001396  72.7359 287.3786 15.08855283 70807,6917.834,95.437,540.664,538.733,0.0
53182.0,STARLINK-4278,PAYLOAD,2023-10-25 13:33:38,15.08845591,0.0001536,53.2164,67.2943,74.072,286.0441,0.00013208,1.815e-05,0.0,0 STARLINK-4278,1 53182U 22083BC  23298.56502882  .00001815  00000-0  13208-3 0  9996,2 53182  53.2164  67.2943 0001536  74.0720 286.0441 15.08845591 71580,6917.863,95.437,540.791,538.666,0.0
53182.0,STARLINK-4278,PAYLOAD,2023-10-26 13:24:26,15.08811283,7.43e-05,53.2165,62.8317,88.1023,272.0054,-0.00037629,-6.266e-05,0.0,0 STARLINK-4278,1 53182U 22083BC  23299.55864167 -.00006266  00000-0 -37629-3 0  9993,2 53182  53.2165  62.8317 0000743  88.1023 272.0054 15.08811283 71090,6917.968,95.439,540.347,539.319,0.0
53182.0,STARLINK-4278,PAYLOAD,2023-10-26 14:59:44,15.08929565,0.0001012,53.2168,62.5343,112.9485,247.1614,0.001381,0.00021813,0.0,0 STARLINK-4278,1 53182U 22083BC  23299.62482453  .00021813  00000-0  13810-2 0  9993,2 53182  53.2168  62.5343 0001012 112.9485 247.1614 15.08929565 71747,6917.607,95.432,540.172,538.772,0.0
53182.0,STARLINK-4278,PAYLOAD,2023-10-27 03:42:53,15.08850255,0.0001341,53.2177,60.1569,91.5024,268.6122,0.00019631,2.839e-05,0.0,0 STARLINK-4278,1 53182U 22083BC  23300.15478241  .00002839  00000-0  19631-3 0  9999,2 53182  53.2177  60.1569 0001341  91.5024 268.6122 15.08850255 71827,6917.849,95.437,540.642,538.786,0.0
53182.0,STARLINK-4278,PAYLOAD,2023-10-27 14:50:34,15.08853594,0.0001161,53.2176,58.0747,86.6227,273.4898,0.000213,3.105e-05,0.0,0 STARLINK-4278,1 53182U 22083BC  23300.61845853  .00003105  00000-0  21300-3 0  9990,2 53182  53.2176  58.0747 0001161  86.6227 273.4898 15.08853594 71250,6917.839,95.437,540.507,538.901,0.0
53182.0,STARLINK-4278,PAYLOAD,2023-10-27 18:01:20,15.08856509,0.0001182,53.2169,57.4793,84.4204,275.6923,0.00021033,3.063e-05,0.0,0 STARLINK-4278,1 53182U 22083BC  23300.75093509  .00003063  00000-0  21033-3 0  9994,2 53182  53.2169  57.4793 0001182  84.4204 275.6923 15.08856509 71274,6917.83,95.437,540.513,538.877,0.0
53182.0,STARLINK-4278,PAYLOAD,2023-10-28 11:30:36,15.08830275,0.0001871,53.2173,54.2073,122.9369,237.1803,-0.00011223,-2.073e-05,0.0,0 STARLINK-4278,1 53182U 22083BC  23301.47958754 -.00002073  00000-0 -11223-3 0  9998,2 53182  53.2173  54.2073 0001871 122.9369 237.1803 15.08830275 72026,6917.91,95.438,541.069,538.481,0.0
53182.0,STARLINK-4278,PAYLOAD,2023-10-28 14:41:22,15.08837907,0.0001167,53.2178,53.6116,94.2605,265.8521,9.5758e-05,1.236e-05,0.0,0 STARLINK-4278,1 53182U 22083BC  23301.61206742  .00001236  00000-0  95758-4 0  9991,2 53182  53.2178  53.6116 0001167  94.2605 265.8521 15.08837907 71409,6917.887,95.438,540.559,538.944,0.0
53182.0,STARLINK-4278,PAYLOAD,2023-10-29 12:56:46,15.08858413,0.000132,53.2177,49.4511,96.8124,263.3018,0.00079123,0.00012333,0.0,0 STARLINK-4278,1 53182U 22083BC  23302.53942465  .00012333  00000-0  79123-3 0  9999,2 53182  53.2177  49.4511 0001320  96.8124 263.3018 15.08858413 72180,6917.824,95.436,540.602,538.776,0.0
53182.0,STARLINK-4278,PAYLOAD,2023-10-29 14:32:09,15.08865953,0.0001277,53.2176,49.1543,97.9348,262.1789,0.0010369,0.00016264,0.0,0 STARLINK-4278,1 53182U 22083BC  23302.60566285  .00016264  00000-0  10369-2 0  9992,2 53182  53.2176  49.1543 0001277  97.9348 262.1789 15.08865953 71551,6917.801,95.436,540.549,538.783,0.0
53182.0,STARLINK-4278,PAYLOAD,2023-10-30 11:12:10,15.08835241,0.0001394,53.218,45.2882,115.3474,244.7663,-8.1468e-06,-4.18e-06,0.0,0 STARLINK-4278,1 53182U 22083BC  23303.46678881 -.00000418  00000-0 -81468-5 0  9990,2 53182  53.2180  45.2882 0001394 115.3474 244.7663 15.08835241 72324,6917.895,95.438,540.724,538.796,0.0
53182.0,STARLINK-4278,PAYLOAD,2023-10-30 15:58:20,15.08837428,0.0001278,53.2179,44.3965,110.7495,249.3635,0.00032859,4.945e-05,0.0,0 STARLINK-4278,1 53182U 22083BC  23303.66551010  .00004945  00000-0  32859-3 0  9991,2 53182  53.2179  44.3965 0001278 110.7495 249.3635 15.08837428 71718,6917.888,95.438,540.637,538.869,0.0
53182.0,STARLINK-4278,PAYLOAD,2023-10-31 12:38:21,15.08831415,0.0001174,53.2175,40.5319,99.2139,260.8986,0.00031593,4.743e-05,0.0,0 STARLINK-4278,1 53182U 22083BC  23304.52663872  .00004743  00000-0  31593-3 0  9997,2 53182  53.2175  40.5319 0001174  99.2139 260.8986 15.08831415 72488,6917.907,95.438,540.584,538.959,0.0
53182.0,STARLINK-4278,PAYLOAD,2023-10-31 14:13:44,15.088409,0.0001265,53.2178,40.2339,95.9167,264.1969,0.00035919,5.433e-05,0.0,0 STARLINK-4278,1 53182U 22083BC  23304.59287494  .00005433  00000-0  35919-3 0  9999,2 53182  53.2178  40.2339 0001265  95.9167 264.1969 15.08840900 71852,6917.878,95.437,540.618,538.868,0.0
53182.0,STARLINK-4278,PAYLOAD,2023-11-01 12:29:08,15.08844689,0.0001427,53.2173,36.0715,99.3416,260.7737,0.00037908,5.751e-05,0.0,0 STARLINK-4278,1 53182U 22083BC  23305.52023868  .00005751  00000-0  37908-3 0  9999,2 53182  53.2173  36.0715 0001427  99.3416 260.7737 15.08844689 72633,6917.866,95.437,540.718,538.744,0.0
53182.0,STARLINK-4278,PAYLOAD,2023-11-02 12:19:54,15.08860254,0.0001455,53.2176,31.6102,92.9327,267.1832,0.00037988,5.766e-05,0.0,0 STARLINK-4278,1 53182U 22083BC  23306.51382820  .00005766  00000-0  37988-3 0  9999,2 53182  53.2176  31.6102 0001455  92.9327 267.1832 15.08860254 72147,6917.818,95.436,540.69,538.677,0.0
53182.0,STARLINK-4278,PAYLOAD,2023-11-03 10:35:19,15.08840462,0.0001339,53.2179,27.4455,93.6452,266.4694,-2.6106e-06,-3.29e-06,0.0,0 STARLINK-4278,1 53182U 22083BC  23307.44119403 -.00000329  00000-0 -26106-5 0  9991,2 53182  53.2179  27.4455 0001339  93.6452 266.4694 15.08840462 72925,6917.879,95.438,540.67,538.818,0.0
53182.0,STARLINK-4278,PAYLOAD,2023-11-03 12:10:42,15.08840625,0.0001579,53.2183,27.1476,99.2667,260.8504,-4.6538e-05,-1.029e-05,0.0,0 STARLINK-4278,1 53182U 22083BC  23307.50743359 -.00001029  00000-0 -46538-4 0  9999,2 53182  53.2183  27.1476 0001579  99.2667 260.8504 15.08840625 72295,6917.878,95.438,540.836,538.651,0.0
53182.0,STARLINK-4278,PAYLOAD,2023-11-04 12:01:29,15.08843003,0.0001418,53.2174,22.691,85.428,274.6874,-2.298e-05,-6.54e-06,0.0,0 STARLINK-4278,1 53182U 22083BC  23308.50103508 -.00000654  00000-0 -22980-4 0  9994,2 53182  53.2174  22.6910 0001418  85.4280 274.6874 15.08843003 72441,6917.871,95.437,540.717,538.755,0.0
53182.0,STARLINK-4278,PAYLOAD,2023-11-04 21:33:48,15.08841936,0.0001429,53.2178,20.9075,86.1536,273.9619,1.8373e-05,4e-08,0.0,0 STARLINK-4278,1 53182U 22083BC  23308.89847669  .00000004  00000-0  18373-4 0  9997,2 53182  53.2178  20.9075 0001429  86.1536 273.9619 15.08841936 72501,6917.874,95.437,540.728,538.751,0.0
53182.0,STARLINK-4278,PAYLOAD,2023-11-05 03:55:21,15.08838914,0.0001325,53.2174,19.7176,89.886,270.2284,0.00028098,4.187e-05,0.0,0 STARLINK-4278,1 53182U 22083BC  23309.16344147  .00004187  00000-0  28098-3 0  9991,2 53182  53.2174  19.7176 0001325  89.8860 270.2284 15.08838914 73185,6917.884,95.438,540.665,538.832,0.0
53182.0,STARLINK-4278,PAYLOAD,2023-11-05 11:52:16,15.08861846,0.0001286,53.2178,18.2281,83.3826,276.7313,0.00061519,9.522e-05,0.0,0 STARLINK-4278,1 53182U 22083BC  23309.49463128  .00009522  00000-0  61519-3 0  9991,2 53182  53.2178  18.2281 0001286  83.3826 276.7313 15.08861846 73237,6917.814,95.436,540.568,538.789,0.0
53182.0,STARLINK-4278,PAYLOAD,2023-11-05 21:24:34,15.08866417,0.0001226,53.2182,16.4448,75.0019,285.1109,0.00058568,9.052e-05,0.0,0 STARLINK-4278,1 53182U 22083BC  23309.89206625  .00009052  00000-0  58568-3 0  9990,2 53182  53.2182  16.4448 0001226  75.0019 285.1109 15.08866417 72654,6917.8,95.436,540.513,538.817,0.0
53182.0,STARLINK-4278,PAYLOAD,2023-11-06 03:46:07,15.08851347,0.0001602,53.217,15.257,71.9571,288.1596,0.00017689,2.529e-05,0.0,0 STARLINK-4278,1 53182U 22083BC  23310.15703152  .00002529  00000-0  17689-3 0  9999,2 53182  53.2170  15.2570 0001602  71.9571 288.1596 15.08851347 73335,6917.846,95.437,540.819,538.602,0.0
53182.0,STARLINK-4278,PAYLOAD,2023-11-06 11:43:04,15.08808385,0.0001849,53.2172,13.7704,61.3859,298.7319,-0.00091981,-0.00014885,0.0,0 STARLINK-4278,1 53182U 22083BC  23310.48824255 -.00014885  00000-0 -91981-3 0  9990,2 53182  53.2172  13.7704 0001849  61.3859 298.7319 15.08808385 73383,6917.977,95.44,541.121,538.563,0.0
